<?xml version="1.0" encoding="UTF-8"?>
<gpx creator="StravaGPX" version="1.1" xmlns="http://www.topografix.com/GPX/1/1" xmlns:xsi="http://www.w3.org/2001/XMLSchema-instance" xsi:schemaLocation="http://www.topografix.com/GPX/1/1 http://www.topografix.com/GPX/1/1/gpx.xsd">
 <metadata>
  <name>Barberfish</name>
  <author>
   <name>Johannes Weytjens</name>
   <link href="https://www.strava.com/athletes/17322406"/>
  </author>
  <copyright author="OpenStreetMap contributors">
   <year>2020</year>
   <license>https://www.openstreetmap.org/copyright</license>
  </copyright>
  <link href="https://www.strava.com/routes/3535646059576272018"/>
 </metadata>
 <trk>
  <name>Barberfish</name>
  <link href="https://www.strava.com/routes/3535646059576272018"/>
  <type>cycling</type>
  <trkseg>
   <trkpt lat="49.505630000000004" lon="20.053520000000002">
    <ele>653.24</ele>
   </trkpt>
   <trkpt lat="49.50506000000001" lon="20.052690000000002">
    <ele>651.02</ele>
   </trkpt>
   <trkpt lat="49.50489" lon="20.052410000000002">
    <ele>649.21</ele>
   </trkpt>
   <trkpt lat="49.50445500531255" lon="20.0512949899712">
    <ele>645.24</ele>
   </trkpt>
   <trkpt lat="49.504020000000004" lon="20.05018">
    <ele>644.0600000000001</ele>
   </trkpt>
   <trkpt lat="49.503840000000004" lon="20.04991">
    <ele>643.36</ele>
   </trkpt>
   <trkpt lat="49.503510000000006" lon="20.049570000000003">
    <ele>642.22</ele>
   </trkpt>
   <trkpt lat="49.503370000000004" lon="20.049390000000002">
    <ele>641.82</ele>
   </trkpt>
   <trkpt lat="49.502950000000006" lon="20.04869">
    <ele>639.58</ele>
   </trkpt>
   <trkpt lat="49.502430000000004" lon="20.04776">
    <ele>638.0</ele>
   </trkpt>
   <trkpt lat="49.50207" lon="20.046760000000003">
    <ele>637.0600000000001</ele>
   </trkpt>
   <trkpt lat="49.50148000409734" lon="20.045779988114724">
    <ele>633.62</ele>
   </trkpt>
   <trkpt lat="49.500890000000005" lon="20.044800000000002">
    <ele>631.35</ele>
   </trkpt>
   <trkpt lat="49.50053500206178" lon="20.04411999519906">
    <ele>629.58</ele>
   </trkpt>
   <trkpt lat="49.50018000000001" lon="20.04344">
    <ele>626.6700000000001</ele>
   </trkpt>
   <trkpt lat="49.49998" lon="20.04316">
    <ele>626.3700000000001</ele>
   </trkpt>
   <trkpt lat="49.49945" lon="20.042610000000003">
    <ele>623.17</ele>
   </trkpt>
   <trkpt lat="49.49931" lon="20.042370000000002">
    <ele>621.6400000000001</ele>
   </trkpt>
   <trkpt lat="49.499230000000004" lon="20.042140000000003">
    <ele>621.6400000000001</ele>
   </trkpt>
   <trkpt lat="49.499100000000006" lon="20.041500000000003">
    <ele>618.41</ele>
   </trkpt>
   <trkpt lat="49.49895" lon="20.041140000000002">
    <ele>617.83</ele>
   </trkpt>
   <trkpt lat="49.49862" lon="20.0407">
    <ele>617.5200000000001</ele>
   </trkpt>
   <trkpt lat="49.498023337230805" lon="20.040026650236292">
    <ele>617.3000000000001</ele>
   </trkpt>
   <trkpt lat="49.49742667055373" lon="20.03935331689148">
    <ele>617.34</ele>
   </trkpt>
   <trkpt lat="49.49683" lon="20.038680000000003">
    <ele>615.14</ele>
   </trkpt>
   <trkpt lat="49.49667" lon="20.03855">
    <ele>614.33</ele>
   </trkpt>
   <trkpt lat="49.49647" lon="20.03846">
    <ele>613.5600000000001</ele>
   </trkpt>
   <trkpt lat="49.496340000000004" lon="20.038420000000002">
    <ele>613.5600000000001</ele>
   </trkpt>
   <trkpt lat="49.49618" lon="20.038410000000002">
    <ele>612.73</ele>
   </trkpt>
   <trkpt lat="49.49564499990913" lon="20.038470000667807">
    <ele>610.97</ele>
   </trkpt>
   <trkpt lat="49.495110000000004" lon="20.03853">
    <ele>609.32</ele>
   </trkpt>
   <trkpt lat="49.49474000000001" lon="20.03853">
    <ele>608.92</ele>
   </trkpt>
   <trkpt lat="49.49461" lon="20.038490000000003">
    <ele>607.5400000000001</ele>
   </trkpt>
   <trkpt lat="49.49416500039194" lon="20.038294998327046">
    <ele>605.94</ele>
   </trkpt>
   <trkpt lat="49.49372" lon="20.0381">
    <ele>604.4000000000001</ele>
   </trkpt>
   <trkpt lat="49.49344000000001" lon="20.038030000000003">
    <ele>603.5200000000001</ele>
   </trkpt>
   <trkpt lat="49.49271" lon="20.03796">
    <ele>601.71</ele>
   </trkpt>
   <trkpt lat="49.49231" lon="20.03799">
    <ele>600.59</ele>
   </trkpt>
   <trkpt lat="49.491710000023005" lon="20.038080001104962">
    <ele>598.02</ele>
   </trkpt>
   <trkpt lat="49.491110000000006" lon="20.03817">
    <ele>596.47</ele>
   </trkpt>
   <trkpt lat="49.49063000039511" lon="20.038190000179725">
    <ele>595.32</ele>
   </trkpt>
   <trkpt lat="49.49015000000001" lon="20.038210000000003">
    <ele>594.3000000000001</ele>
   </trkpt>
   <trkpt lat="49.48989" lon="20.03828">
    <ele>594.3000000000001</ele>
   </trkpt>
   <trkpt lat="49.489560000000004" lon="20.038390000000003">
    <ele>592.87</ele>
   </trkpt>
   <trkpt lat="49.489320000000006" lon="20.038420000000002">
    <ele>591.83</ele>
   </trkpt>
   <trkpt lat="49.48869499997062" lon="20.038445000320454">
    <ele>590.35</ele>
   </trkpt>
   <trkpt lat="49.48807000000001" lon="20.03847">
    <ele>589.2900000000001</ele>
   </trkpt>
   <trkpt lat="49.48776" lon="20.03846">
    <ele>588.53</ele>
   </trkpt>
   <trkpt lat="49.48702" lon="20.03829">
    <ele>587.35</ele>
   </trkpt>
   <trkpt lat="49.486760000000004" lon="20.03825">
    <ele>587.1</ele>
   </trkpt>
   <trkpt lat="49.486610000000006" lon="20.03818">
    <ele>587.04</ele>
   </trkpt>
   <trkpt lat="49.48655" lon="20.038130000000002">
    <ele>587.04</ele>
   </trkpt>
   <trkpt lat="49.48635" lon="20.03806">
    <ele>586.92</ele>
   </trkpt>
   <trkpt lat="49.48633" lon="20.038030000000003">
    <ele>586.92</ele>
   </trkpt>
   <trkpt lat="49.48628" lon="20.03801">
    <ele>586.6600000000001</ele>
   </trkpt>
   <trkpt lat="49.486230000000006" lon="20.038040000000002">
    <ele>586.6600000000001</ele>
   </trkpt>
   <trkpt lat="49.486200000000004" lon="20.038110000000003">
    <ele>586.6600000000001</ele>
   </trkpt>
   <trkpt lat="49.48610000000001" lon="20.03817">
    <ele>586.38</ele>
   </trkpt>
   <trkpt lat="49.486110000000004" lon="20.038320000000002">
    <ele>586.6</ele>
   </trkpt>
   <trkpt lat="49.48608" lon="20.038330000000002">
    <ele>586.6</ele>
   </trkpt>
   <trkpt lat="49.485670000000006" lon="20.03844">
    <ele>587.6300000000001</ele>
   </trkpt>
   <trkpt lat="49.48500000003881" lon="20.038545001438216">
    <ele>588.08</ele>
   </trkpt>
   <trkpt lat="49.48433000000001" lon="20.03865">
    <ele>585.9100000000001</ele>
   </trkpt>
   <trkpt lat="49.484140000000004" lon="20.03872">
    <ele>585.16</ele>
   </trkpt>
   <trkpt lat="49.483850000000004" lon="20.038860000000003">
    <ele>584.1700000000001</ele>
   </trkpt>
   <trkpt lat="49.48337500040413" lon="20.03915500284376">
    <ele>583.7800000000001</ele>
   </trkpt>
   <trkpt lat="49.4829" lon="20.039450000000002">
    <ele>583.77</ele>
   </trkpt>
   <trkpt lat="49.48255" lon="20.0396">
    <ele>584.09</ele>
   </trkpt>
   <trkpt lat="49.482380000000006" lon="20.039610000000003">
    <ele>584.71</ele>
   </trkpt>
   <trkpt lat="49.48221" lon="20.0396">
    <ele>584.71</ele>
   </trkpt>
   <trkpt lat="49.48205" lon="20.03956">
    <ele>584.71</ele>
   </trkpt>
   <trkpt lat="49.481700000000004" lon="20.039340000000003">
    <ele>586.1200000000001</ele>
   </trkpt>
   <trkpt lat="49.48165" lon="20.03937">
    <ele>586.1200000000001</ele>
   </trkpt>
   <trkpt lat="49.48162000000001" lon="20.0394">
    <ele>586.2700000000001</ele>
   </trkpt>
   <trkpt lat="49.481590000000004" lon="20.03938">
    <ele>586.2700000000001</ele>
   </trkpt>
   <trkpt lat="49.48165" lon="20.03913">
    <ele>586.13</ele>
   </trkpt>
   <trkpt lat="49.481590000000004" lon="20.0391">
    <ele>586.35</ele>
   </trkpt>
   <trkpt lat="49.48153000000001" lon="20.039350000000002">
    <ele>586.33</ele>
   </trkpt>
   <trkpt lat="49.481500000000004" lon="20.039630000000002">
    <ele>586.61</ele>
   </trkpt>
   <trkpt lat="49.48126500412037" lon="20.040610004782394">
    <ele>587.55</ele>
   </trkpt>
   <trkpt lat="49.481030000000004" lon="20.041590000000003">
    <ele>587.26</ele>
   </trkpt>
   <trkpt lat="49.480720000000005" lon="20.041520000000002">
    <ele>587.0300000000001</ele>
   </trkpt>
   <trkpt lat="49.480430000000005" lon="20.04148">
    <ele>587.11</ele>
   </trkpt>
   <trkpt lat="49.47978500005769" lon="20.041364998485427">
    <ele>587.37</ele>
   </trkpt>
   <trkpt lat="49.47914" lon="20.04125">
    <ele>587.6</ele>
   </trkpt>
   <trkpt lat="49.47865" lon="20.041150000000002">
    <ele>587.61</ele>
   </trkpt>
   <trkpt lat="49.47816" lon="20.04089">
    <ele>587.89</ele>
   </trkpt>
   <trkpt lat="49.47762000062655" lon="20.040519995945296">
    <ele>588.59</ele>
   </trkpt>
   <trkpt lat="49.47708" lon="20.04015">
    <ele>589.01</ele>
   </trkpt>
   <trkpt lat="49.47711" lon="20.04012">
    <ele>588.4</ele>
   </trkpt>
   <trkpt lat="49.477270000000004" lon="20.040080000000003">
    <ele>587.71</ele>
   </trkpt>
   <trkpt lat="49.47729" lon="20.03998">
    <ele>587.59</ele>
   </trkpt>
   <trkpt lat="49.47693" lon="20.0394">
    <ele>587.25</ele>
   </trkpt>
   <trkpt lat="49.47673" lon="20.03929">
    <ele>587.45</ele>
   </trkpt>
   <trkpt lat="49.476040000000005" lon="20.039240000000003">
    <ele>587.94</ele>
   </trkpt>
   <trkpt lat="49.47596" lon="20.03922">
    <ele>587.94</ele>
   </trkpt>
   <trkpt lat="49.47569000000001" lon="20.03904">
    <ele>588.21</ele>
   </trkpt>
   <trkpt lat="49.47521499987989" lon="20.038899998581947">
    <ele>588.5</ele>
   </trkpt>
   <trkpt lat="49.474740000000004" lon="20.03876">
    <ele>589.11</ele>
   </trkpt>
   <trkpt lat="49.47412000011578" lon="20.038714999438156">
    <ele>589.4200000000001</ele>
   </trkpt>
   <trkpt lat="49.4735" lon="20.038670000000003">
    <ele>589.95</ele>
   </trkpt>
   <trkpt lat="49.47321" lon="20.038670000000003">
    <ele>590.04</ele>
   </trkpt>
   <trkpt lat="49.472860000000004" lon="20.038710000000002">
    <ele>590.37</ele>
   </trkpt>
   <trkpt lat="49.472500000000004" lon="20.038700000000002">
    <ele>590.3900000000001</ele>
   </trkpt>
   <trkpt lat="49.47204000000001" lon="20.03856">
    <ele>590.7600000000001</ele>
   </trkpt>
   <trkpt lat="49.47193000000001" lon="20.03855">
    <ele>590.9100000000001</ele>
   </trkpt>
   <trkpt lat="49.471560000000004" lon="20.03866">
    <ele>592.0000000000001</ele>
   </trkpt>
   <trkpt lat="49.4707" lon="20.03881">
    <ele>591.55</ele>
   </trkpt>
   <trkpt lat="49.470020000000005" lon="20.03904">
    <ele>592.48</ele>
   </trkpt>
   <trkpt lat="49.46965" lon="20.03903">
    <ele>593.0000000000001</ele>
   </trkpt>
   <trkpt lat="49.46896" lon="20.038890000000002">
    <ele>593.98</ele>
   </trkpt>
   <trkpt lat="49.4684199999907" lon="20.038734998259095">
    <ele>594.1</ele>
   </trkpt>
   <trkpt lat="49.46788" lon="20.038580000000003">
    <ele>594.43</ele>
   </trkpt>
   <trkpt lat="49.467580000000005" lon="20.03844">
    <ele>595.1700000000001</ele>
   </trkpt>
   <trkpt lat="49.467510000000004" lon="20.03844">
    <ele>595.8800000000001</ele>
   </trkpt>
   <trkpt lat="49.46737" lon="20.038500000000003">
    <ele>596.41</ele>
   </trkpt>
   <trkpt lat="49.4673" lon="20.038500000000003">
    <ele>597.3000000000001</ele>
   </trkpt>
   <trkpt lat="49.467240000000004" lon="20.03846">
    <ele>597.3000000000001</ele>
   </trkpt>
   <trkpt lat="49.46712" lon="20.038300000000003">
    <ele>598.86</ele>
   </trkpt>
   <trkpt lat="49.4669" lon="20.038240000000002">
    <ele>600.28</ele>
   </trkpt>
   <trkpt lat="49.46647" lon="20.038040000000002">
    <ele>602.53</ele>
   </trkpt>
   <trkpt lat="49.46632" lon="20.03801">
    <ele>604.1</ele>
   </trkpt>
   <trkpt lat="49.46622000000001" lon="20.038050000000002">
    <ele>604.1</ele>
   </trkpt>
   <trkpt lat="49.466120000000004" lon="20.038130000000002">
    <ele>604.1</ele>
   </trkpt>
   <trkpt lat="49.466" lon="20.03834">
    <ele>606.83</ele>
   </trkpt>
   <trkpt lat="49.465740000000004" lon="20.039250000000003">
    <ele>609.65</ele>
   </trkpt>
   <trkpt lat="49.46569" lon="20.03928">
    <ele>609.7600000000001</ele>
   </trkpt>
   <trkpt lat="49.46562" lon="20.039270000000002">
    <ele>609.7600000000001</ele>
   </trkpt>
   <trkpt lat="49.46542" lon="20.039710000000003">
    <ele>609.5200000000001</ele>
   </trkpt>
   <trkpt lat="49.46535" lon="20.03979">
    <ele>609.4200000000001</ele>
   </trkpt>
   <trkpt lat="49.46462000099191" lon="20.040265007064445">
    <ele>609.99</ele>
   </trkpt>
   <trkpt lat="49.463890000000006" lon="20.040740000000003">
    <ele>610.85</ele>
   </trkpt>
   <trkpt lat="49.463750000000005" lon="20.04101">
    <ele>610.96</ele>
   </trkpt>
   <trkpt lat="49.4635" lon="20.041890000000002">
    <ele>610.87</ele>
   </trkpt>
   <trkpt lat="49.46318667462077" lon="20.0428500122502">
    <ele>610.46</ele>
   </trkpt>
   <trkpt lat="49.462873341296365" lon="20.043810012222654">
    <ele>610.0000000000001</ele>
   </trkpt>
   <trkpt lat="49.46256" lon="20.044770000000003">
    <ele>609.6600000000001</ele>
   </trkpt>
   <trkpt lat="49.46219000000001" lon="20.04578">
    <ele>610.13</ele>
   </trkpt>
   <trkpt lat="49.46219000000001" lon="20.04579">
    <ele>610.14</ele>
   </trkpt>
   <trkpt lat="49.46213" lon="20.04598">
    <ele>610.58</ele>
   </trkpt>
   <trkpt lat="49.46188" lon="20.046300000000002">
    <ele>610.89</ele>
   </trkpt>
   <trkpt lat="49.46152000000001" lon="20.046380000000003">
    <ele>611.32</ele>
   </trkpt>
   <trkpt lat="49.46064000025878" lon="20.046203326986145">
    <ele>611.86</ele>
   </trkpt>
   <trkpt lat="49.45976000024848" lon="20.04602666031755">
    <ele>612.4200000000001</ele>
   </trkpt>
   <trkpt lat="49.45888" lon="20.04585">
    <ele>613.8</ele>
   </trkpt>
   <trkpt lat="49.458200000000005" lon="20.04566">
    <ele>614.5</ele>
   </trkpt>
   <trkpt lat="49.458070000000006" lon="20.04558">
    <ele>614.5</ele>
   </trkpt>
   <trkpt lat="49.457930000000005" lon="20.045430000000003">
    <ele>615.0600000000001</ele>
   </trkpt>
   <trkpt lat="49.45763" lon="20.04531">
    <ele>615.44</ele>
   </trkpt>
   <trkpt lat="49.457010000000004" lon="20.04549">
    <ele>616.1</ele>
   </trkpt>
   <trkpt lat="49.45637000000001" lon="20.04625">
    <ele>616.9100000000001</ele>
   </trkpt>
   <trkpt lat="49.45596000064224" lon="20.046670003634507">
    <ele>616.96</ele>
   </trkpt>
   <trkpt lat="49.45555" lon="20.04709">
    <ele>616.7600000000001</ele>
   </trkpt>
   <trkpt lat="49.45525000000001" lon="20.04728">
    <ele>616.82</ele>
   </trkpt>
   <trkpt lat="49.454840000000004" lon="20.047410000000003">
    <ele>616.96</ele>
   </trkpt>
   <trkpt lat="49.454840000000004" lon="20.047780000000003">
    <ele>616.94</ele>
   </trkpt>
   <trkpt lat="49.4549" lon="20.048270000000002">
    <ele>616.68</ele>
   </trkpt>
   <trkpt lat="49.45488" lon="20.048530000000003">
    <ele>616.6600000000001</ele>
   </trkpt>
   <trkpt lat="49.454660000000004" lon="20.04849">
    <ele>616.6600000000001</ele>
   </trkpt>
   <trkpt lat="49.454370000000004" lon="20.04839">
    <ele>616.9300000000001</ele>
   </trkpt>
   <trkpt lat="49.4538" lon="20.04831">
    <ele>617.17</ele>
   </trkpt>
   <trkpt lat="49.453390000000006" lon="20.04805">
    <ele>617.4200000000001</ele>
   </trkpt>
   <trkpt lat="49.453190000000006" lon="20.04795">
    <ele>617.71</ele>
   </trkpt>
   <trkpt lat="49.452630000000006" lon="20.047800000000002">
    <ele>618.23</ele>
   </trkpt>
   <trkpt lat="49.452130000000004" lon="20.047490000000003">
    <ele>618.63</ele>
   </trkpt>
   <trkpt lat="49.45172" lon="20.0472">
    <ele>619.26</ele>
   </trkpt>
   <trkpt lat="49.451315001521756" lon="20.046614995233895">
    <ele>619.77</ele>
   </trkpt>
   <trkpt lat="49.45091000000001" lon="20.046030000000002">
    <ele>620.32</ele>
   </trkpt>
   <trkpt lat="49.45034000086383" lon="20.045554994386215">
    <ele>621.2500000000001</ele>
   </trkpt>
   <trkpt lat="49.44977" lon="20.045080000000002">
    <ele>621.74</ele>
   </trkpt>
   <trkpt lat="49.449180000000005" lon="20.044780000000003">
    <ele>622.46</ele>
   </trkpt>
   <trkpt lat="49.448370000000004" lon="20.04428">
    <ele>623.75</ele>
   </trkpt>
   <trkpt lat="49.44812" lon="20.04407">
    <ele>623.95</ele>
   </trkpt>
   <trkpt lat="49.447500000000005" lon="20.043200000000002">
    <ele>625.0300000000001</ele>
   </trkpt>
   <trkpt lat="49.44727" lon="20.04275">
    <ele>625.5200000000001</ele>
   </trkpt>
   <trkpt lat="49.4472" lon="20.04267">
    <ele>625.68</ele>
   </trkpt>
   <trkpt lat="49.446380000000005" lon="20.04222">
    <ele>626.5</ele>
   </trkpt>
   <trkpt lat="49.4461" lon="20.041980000000002">
    <ele>626.99</ele>
   </trkpt>
   <trkpt lat="49.445840000000004" lon="20.041700000000002">
    <ele>627.47</ele>
   </trkpt>
   <trkpt lat="49.445730000000005" lon="20.041520000000002">
    <ele>627.47</ele>
   </trkpt>
   <trkpt lat="49.44572" lon="20.040860000000002">
    <ele>628.3700000000001</ele>
   </trkpt>
   <trkpt lat="49.44579000260212" lon="20.040085000963817">
    <ele>628.9300000000001</ele>
   </trkpt>
   <trkpt lat="49.44586" lon="20.03931">
    <ele>629.27</ele>
   </trkpt>
   <trkpt lat="49.44595" lon="20.038030000000003">
    <ele>629.7700000000001</ele>
   </trkpt>
   <trkpt lat="49.44605500261266" lon="20.037255001486823">
    <ele>630.12</ele>
   </trkpt>
   <trkpt lat="49.446160000000006" lon="20.03648">
    <ele>630.24</ele>
   </trkpt>
   <trkpt lat="49.44629000212668" lon="20.03578000177877">
    <ele>630.27</ele>
   </trkpt>
   <trkpt lat="49.44642" lon="20.03508">
    <ele>630.12</ele>
   </trkpt>
   <trkpt lat="49.44646" lon="20.034760000000002">
    <ele>629.78</ele>
   </trkpt>
   <trkpt lat="49.446400000000004" lon="20.03425">
    <ele>629.9800000000001</ele>
   </trkpt>
   <trkpt lat="49.44648" lon="20.03346">
    <ele>630.1300000000001</ele>
   </trkpt>
   <trkpt lat="49.44646" lon="20.032380000000003">
    <ele>630.7</ele>
   </trkpt>
   <trkpt lat="49.44654000386124" lon="20.031435001405796">
    <ele>630.71</ele>
   </trkpt>
   <trkpt lat="49.44662" lon="20.03049">
    <ele>631.07</ele>
   </trkpt>
   <trkpt lat="49.44655" lon="20.03021">
    <ele>631.14</ele>
   </trkpt>
   <trkpt lat="49.446360000000006" lon="20.030160000000002">
    <ele>631.21</ele>
   </trkpt>
   <trkpt lat="49.44606" lon="20.03">
    <ele>631.2500000000001</ele>
   </trkpt>
   <trkpt lat="49.445890000000006" lon="20.029960000000003">
    <ele>631.33</ele>
   </trkpt>
   <trkpt lat="49.4457" lon="20.03002">
    <ele>631.73</ele>
   </trkpt>
   <trkpt lat="49.445530000000005" lon="20.03011">
    <ele>631.8000000000001</ele>
   </trkpt>
   <trkpt lat="49.445280000000004" lon="20.0304">
    <ele>632.24</ele>
   </trkpt>
   <trkpt lat="49.445040000000006" lon="20.03059">
    <ele>632.38</ele>
   </trkpt>
   <trkpt lat="49.44491000000001" lon="20.030730000000002">
    <ele>632.6</ele>
   </trkpt>
   <trkpt lat="49.44485" lon="20.03076">
    <ele>632.6</ele>
   </trkpt>
   <trkpt lat="49.444700000000005" lon="20.03076">
    <ele>632.6</ele>
   </trkpt>
   <trkpt lat="49.44447" lon="20.03093">
    <ele>632.9300000000001</ele>
   </trkpt>
   <trkpt lat="49.444340000000004" lon="20.030980000000003">
    <ele>632.9300000000001</ele>
   </trkpt>
   <trkpt lat="49.44407" lon="20.031260000000003">
    <ele>633.27</ele>
   </trkpt>
   <trkpt lat="49.443870000000004" lon="20.031570000000002">
    <ele>633.33</ele>
   </trkpt>
   <trkpt lat="49.44377" lon="20.031830000000003">
    <ele>633.4200000000001</ele>
   </trkpt>
   <trkpt lat="49.44373" lon="20.03186">
    <ele>633.4200000000001</ele>
   </trkpt>
   <trkpt lat="49.44359000000001" lon="20.03199">
    <ele>633.7100000000002</ele>
   </trkpt>
   <trkpt lat="49.443400000000004" lon="20.03208">
    <ele>633.7100000000002</ele>
   </trkpt>
   <trkpt lat="49.4433" lon="20.03207">
    <ele>634.0100000000001</ele>
   </trkpt>
   <trkpt lat="49.44319" lon="20.032110000000003">
    <ele>634.0100000000001</ele>
   </trkpt>
   <trkpt lat="49.44304" lon="20.032220000000002">
    <ele>634.26</ele>
   </trkpt>
   <trkpt lat="49.4429" lon="20.03226">
    <ele>634.5</ele>
   </trkpt>
   <trkpt lat="49.44261" lon="20.032410000000002">
    <ele>634.7700000000001</ele>
   </trkpt>
   <trkpt lat="49.442400000000006" lon="20.032570000000003">
    <ele>634.9800000000001</ele>
   </trkpt>
   <trkpt lat="49.44225" lon="20.032570000000003">
    <ele>635.35</ele>
   </trkpt>
   <trkpt lat="49.441900000000004" lon="20.03252">
    <ele>635.72</ele>
   </trkpt>
   <trkpt lat="49.441590000000005" lon="20.03233">
    <ele>636.2800000000001</ele>
   </trkpt>
   <trkpt lat="49.44136" lon="20.03228">
    <ele>636.6</ele>
   </trkpt>
   <trkpt lat="49.44107" lon="20.03234">
    <ele>637.0400000000001</ele>
   </trkpt>
   <trkpt lat="49.44075" lon="20.032490000000003">
    <ele>637.33</ele>
   </trkpt>
   <trkpt lat="49.44088500248895" lon="20.03324499809802">
    <ele>637.09</ele>
   </trkpt>
   <trkpt lat="49.44102" lon="20.034000000000002">
    <ele>636.46</ele>
   </trkpt>
   <trkpt lat="49.44109" lon="20.034290000000002">
    <ele>636.35</ele>
   </trkpt>
   <trkpt lat="49.44108000000001" lon="20.034390000000002">
    <ele>636.35</ele>
   </trkpt>
   <trkpt lat="49.441030000000005" lon="20.034580000000002">
    <ele>636.27</ele>
   </trkpt>
   <trkpt lat="49.44095" lon="20.03479">
    <ele>636.21</ele>
   </trkpt>
   <trkpt lat="49.441120000000005" lon="20.03609">
    <ele>634.5400000000001</ele>
   </trkpt>
   <trkpt lat="49.44111" lon="20.036250000000003">
    <ele>634.29</ele>
   </trkpt>
   <trkpt lat="49.44106000000001" lon="20.036510000000003">
    <ele>633.84</ele>
   </trkpt>
   <trkpt lat="49.441" lon="20.03667">
    <ele>633.84</ele>
   </trkpt>
   <trkpt lat="49.44095" lon="20.03674">
    <ele>633.7700000000001</ele>
   </trkpt>
   <trkpt lat="49.44091" lon="20.03686">
    <ele>633.57</ele>
   </trkpt>
   <trkpt lat="49.440780000000004" lon="20.03788">
    <ele>633.5400000000001</ele>
   </trkpt>
   <trkpt lat="49.440780000000004" lon="20.03818">
    <ele>633.6</ele>
   </trkpt>
   <trkpt lat="49.440810000000006" lon="20.03845">
    <ele>633.34</ele>
   </trkpt>
   <trkpt lat="49.440920000000006" lon="20.03875">
    <ele>633.35</ele>
   </trkpt>
   <trkpt lat="49.440960000000004" lon="20.03894">
    <ele>633.56</ele>
   </trkpt>
   <trkpt lat="49.44098" lon="20.039140000000003">
    <ele>633.7900000000001</ele>
   </trkpt>
   <trkpt lat="49.44097000000001" lon="20.0393">
    <ele>634.38</ele>
   </trkpt>
   <trkpt lat="49.44089" lon="20.039520000000003">
    <ele>634.9</ele>
   </trkpt>
   <trkpt lat="49.440920000000006" lon="20.040760000000002">
    <ele>636.57</ele>
   </trkpt>
   <trkpt lat="49.44102" lon="20.04174">
    <ele>637.5500000000001</ele>
   </trkpt>
   <trkpt lat="49.44098" lon="20.042050000000003">
    <ele>638.14</ele>
   </trkpt>
   <trkpt lat="49.440900000000006" lon="20.0424">
    <ele>638.5900000000001</ele>
   </trkpt>
   <trkpt lat="49.44089" lon="20.04317">
    <ele>638.4200000000001</ele>
   </trkpt>
   <trkpt lat="49.440920000000006" lon="20.04333">
    <ele>638.0600000000001</ele>
   </trkpt>
   <trkpt lat="49.440990000000006" lon="20.0435">
    <ele>637.6</ele>
   </trkpt>
   <trkpt lat="49.44124" lon="20.0439">
    <ele>636.08</ele>
   </trkpt>
   <trkpt lat="49.44145" lon="20.04435">
    <ele>635.3000000000001</ele>
   </trkpt>
   <trkpt lat="49.44163" lon="20.04483">
    <ele>635.4200000000001</ele>
   </trkpt>
   <trkpt lat="49.441990000000004" lon="20.045520000000003">
    <ele>636.57</ele>
   </trkpt>
   <trkpt lat="49.44200000000001" lon="20.04585">
    <ele>637.8000000000001</ele>
   </trkpt>
   <trkpt lat="49.44194" lon="20.04641">
    <ele>638.66</ele>
   </trkpt>
   <trkpt lat="49.441810000000004" lon="20.0472">
    <ele>640.1</ele>
   </trkpt>
   <trkpt lat="49.4418" lon="20.047410000000003">
    <ele>640.36</ele>
   </trkpt>
   <trkpt lat="49.441840000000006" lon="20.047520000000002">
    <ele>640.36</ele>
   </trkpt>
   <trkpt lat="49.44212" lon="20.04757">
    <ele>640.2</ele>
   </trkpt>
   <trkpt lat="49.44268" lon="20.04755">
    <ele>639.22</ele>
   </trkpt>
   <trkpt lat="49.4427" lon="20.04774">
    <ele>639.3000000000001</ele>
   </trkpt>
   <trkpt lat="49.442600000000006" lon="20.048350000000003">
    <ele>639.97</ele>
   </trkpt>
   <trkpt lat="49.44241" lon="20.049100000000003">
    <ele>641.07</ele>
   </trkpt>
   <trkpt lat="49.442085001496764" lon="20.04970000407858">
    <ele>642.5600000000001</ele>
   </trkpt>
   <trkpt lat="49.44176" lon="20.0503">
    <ele>643.93</ele>
   </trkpt>
   <trkpt lat="49.4415550019132" lon="20.050980003108826">
    <ele>644.39</ele>
   </trkpt>
   <trkpt lat="49.44135000000001" lon="20.051660000000002">
    <ele>644.4200000000001</ele>
   </trkpt>
   <trkpt lat="49.44177000050727" lon="20.052014996928936">
    <ele>643.37</ele>
   </trkpt>
   <trkpt lat="49.442190000000004" lon="20.052370000000003">
    <ele>642.58</ele>
   </trkpt>
   <trkpt lat="49.442400000000006" lon="20.052490000000002">
    <ele>642.34</ele>
   </trkpt>
   <trkpt lat="49.44248" lon="20.052580000000003">
    <ele>642.34</ele>
   </trkpt>
   <trkpt lat="49.443205001587366" lon="20.053164991440724">
    <ele>641.1600000000001</ele>
   </trkpt>
   <trkpt lat="49.44393" lon="20.05375">
    <ele>639.83</ele>
   </trkpt>
   <trkpt lat="49.444120000000005" lon="20.053980000000003">
    <ele>639.63</ele>
   </trkpt>
   <trkpt lat="49.444210000000005" lon="20.054160000000003">
    <ele>639.29</ele>
   </trkpt>
   <trkpt lat="49.44426000000001" lon="20.054340000000003">
    <ele>639.17</ele>
   </trkpt>
   <trkpt lat="49.44426000000001" lon="20.05498">
    <ele>638.66</ele>
   </trkpt>
   <trkpt lat="49.444300000000005" lon="20.05515">
    <ele>638.4399999999999</ele>
   </trkpt>
   <trkpt lat="49.444280000000006" lon="20.055280000000003">
    <ele>637.94</ele>
   </trkpt>
   <trkpt lat="49.44436500378518" lon="20.05621499856026">
    <ele>636.6400000000001</ele>
   </trkpt>
   <trkpt lat="49.44445" lon="20.05715">
    <ele>635.2500000000001</ele>
   </trkpt>
   <trkpt lat="49.44456500369438" lon="20.058074997877554">
    <ele>633.9800000000001</ele>
   </trkpt>
   <trkpt lat="49.444680000000005" lon="20.059">
    <ele>633.0100000000001</ele>
   </trkpt>
   <trkpt lat="49.444790000000005" lon="20.05966">
    <ele>632.5400000000001</ele>
   </trkpt>
   <trkpt lat="49.444790000000005" lon="20.06004">
    <ele>631.83</ele>
   </trkpt>
   <trkpt lat="49.44459000333015" lon="20.060920003625753">
    <ele>632.66</ele>
   </trkpt>
   <trkpt lat="49.444390000000006" lon="20.0618">
    <ele>633.62</ele>
   </trkpt>
   <trkpt lat="49.44424" lon="20.062640000000002">
    <ele>633.82</ele>
   </trkpt>
   <trkpt lat="49.444190000000006" lon="20.06314">
    <ele>633.9100000000001</ele>
   </trkpt>
   <trkpt lat="49.44413" lon="20.063360000000003">
    <ele>633.7600000000001</ele>
   </trkpt>
   <trkpt lat="49.444100000000006" lon="20.06371">
    <ele>633.6800000000001</ele>
   </trkpt>
   <trkpt lat="49.44413" lon="20.06398">
    <ele>633.4200000000001</ele>
   </trkpt>
   <trkpt lat="49.444100000000006" lon="20.06452">
    <ele>633.2</ele>
   </trkpt>
   <trkpt lat="49.44415000000001" lon="20.064570000000003">
    <ele>632.96</ele>
   </trkpt>
   <trkpt lat="49.44476" lon="20.064780000000003">
    <ele>631.4399999999999</ele>
   </trkpt>
   <trkpt lat="49.445370000000004" lon="20.06503">
    <ele>631.12</ele>
   </trkpt>
   <trkpt lat="49.44539" lon="20.0651">
    <ele>631.12</ele>
   </trkpt>
   <trkpt lat="49.44523" lon="20.06555">
    <ele>630.2500000000001</ele>
   </trkpt>
   <trkpt lat="49.44507" lon="20.06631">
    <ele>630.09</ele>
   </trkpt>
   <trkpt lat="49.444990000000004" lon="20.066840000000003">
    <ele>630.0</ele>
   </trkpt>
   <trkpt lat="49.444900000000004" lon="20.06765">
    <ele>629.78</ele>
   </trkpt>
   <trkpt lat="49.444900000000004" lon="20.0681">
    <ele>629.73</ele>
   </trkpt>
   <trkpt lat="49.444860000000006" lon="20.0686">
    <ele>629.5200000000001</ele>
   </trkpt>
   <trkpt lat="49.444720000000004" lon="20.069270000000003">
    <ele>628.9300000000001</ele>
   </trkpt>
   <trkpt lat="49.44442" lon="20.070500000000003">
    <ele>626.96</ele>
   </trkpt>
   <trkpt lat="49.44418" lon="20.071730000000002">
    <ele>624.4200000000001</ele>
   </trkpt>
   <trkpt lat="49.44406000000001" lon="20.0726">
    <ele>622.57</ele>
   </trkpt>
   <trkpt lat="49.44402" lon="20.07279">
    <ele>622.1000000000001</ele>
   </trkpt>
   <trkpt lat="49.443940000000005" lon="20.073030000000003">
    <ele>621.59</ele>
   </trkpt>
   <trkpt lat="49.44388000000001" lon="20.073390000000003">
    <ele>620.5400000000001</ele>
   </trkpt>
   <trkpt lat="49.44388000000001" lon="20.07337">
    <ele>620.56</ele>
   </trkpt>
   <trkpt lat="49.44368" lon="20.074710000000003">
    <ele>617.4900000000001</ele>
   </trkpt>
   <trkpt lat="49.44353" lon="20.075950000000002">
    <ele>614.24</ele>
   </trkpt>
   <trkpt lat="49.44342500239395" lon="20.076700001827106">
    <ele>613.32</ele>
   </trkpt>
   <trkpt lat="49.44332000000001" lon="20.077450000000002">
    <ele>611.84</ele>
   </trkpt>
   <trkpt lat="49.44324500208346" lon="20.078145001052214">
    <ele>611.3100000000001</ele>
   </trkpt>
   <trkpt lat="49.44317" lon="20.078840000000003">
    <ele>610.35</ele>
   </trkpt>
   <trkpt lat="49.44321" lon="20.07899">
    <ele>610.35</ele>
   </trkpt>
   <trkpt lat="49.443470000000005" lon="20.07929">
    <ele>609.74</ele>
   </trkpt>
   <trkpt lat="49.443580000000004" lon="20.079590000000003">
    <ele>609.36</ele>
   </trkpt>
   <trkpt lat="49.443560000000005" lon="20.079700000000003">
    <ele>609.35</ele>
   </trkpt>
   <trkpt lat="49.44348" lon="20.07977">
    <ele>609.3900000000001</ele>
   </trkpt>
   <trkpt lat="49.443400000000004" lon="20.079810000000002">
    <ele>609.47</ele>
   </trkpt>
   <trkpt lat="49.44319" lon="20.07984">
    <ele>610.47</ele>
   </trkpt>
   <trkpt lat="49.44297" lon="20.079900000000002">
    <ele>611.5200000000001</ele>
   </trkpt>
   <trkpt lat="49.44288" lon="20.08039">
    <ele>611.9</ele>
   </trkpt>
   <trkpt lat="49.44278500261559" lon="20.0811700015703">
    <ele>613.9100000000001</ele>
   </trkpt>
   <trkpt lat="49.442690000000006" lon="20.081950000000003">
    <ele>615.0500000000001</ele>
   </trkpt>
   <trkpt lat="49.44257000345095" lon="20.08285000250946">
    <ele>614.9</ele>
   </trkpt>
   <trkpt lat="49.44245" lon="20.083750000000002">
    <ele>612.74</ele>
   </trkpt>
   <trkpt lat="49.442330000000005" lon="20.084880000000002">
    <ele>610.8</ele>
   </trkpt>
   <trkpt lat="49.44219000317523" lon="20.085735002295813">
    <ele>610.72</ele>
   </trkpt>
   <trkpt lat="49.44205" lon="20.08659">
    <ele>610.22</ele>
   </trkpt>
   <trkpt lat="49.441930000000006" lon="20.08789">
    <ele>610.65</ele>
   </trkpt>
   <trkpt lat="49.441930000000006" lon="20.088030000000003">
    <ele>610.6600000000001</ele>
   </trkpt>
   <trkpt lat="49.44182000000001" lon="20.08906">
    <ele>610.5600000000001</ele>
   </trkpt>
   <trkpt lat="49.441570000000006" lon="20.08941">
    <ele>610.2700000000001</ele>
   </trkpt>
   <trkpt lat="49.441500000000005" lon="20.08961">
    <ele>610.0600000000001</ele>
   </trkpt>
   <trkpt lat="49.44144000000001" lon="20.090110000000003">
    <ele>609.75</ele>
   </trkpt>
   <trkpt lat="49.44145" lon="20.09028">
    <ele>609.4200000000001</ele>
   </trkpt>
   <trkpt lat="49.441480000000006" lon="20.09033">
    <ele>609.2800000000001</ele>
   </trkpt>
   <trkpt lat="49.441680000000005" lon="20.09053">
    <ele>609.2800000000001</ele>
   </trkpt>
   <trkpt lat="49.44178" lon="20.090860000000003">
    <ele>609.14</ele>
   </trkpt>
   <trkpt lat="49.441810000000004" lon="20.091050000000003">
    <ele>609.2800000000001</ele>
   </trkpt>
   <trkpt lat="49.44178" lon="20.09138">
    <ele>609.94</ele>
   </trkpt>
   <trkpt lat="49.441570000000006" lon="20.09222">
    <ele>613.51</ele>
   </trkpt>
   <trkpt lat="49.441433342182606" lon="20.09323333901273">
    <ele>615.7</ele>
   </trkpt>
   <trkpt lat="49.441296675511715" lon="20.094246672377235">
    <ele>617.2700000000001</ele>
   </trkpt>
   <trkpt lat="49.44116" lon="20.095260000000003">
    <ele>618.7600000000001</ele>
   </trkpt>
   <trkpt lat="49.44097000618548" lon="20.09646000479071">
    <ele>619.7600000000001</ele>
   </trkpt>
   <trkpt lat="49.440780000000004" lon="20.09766">
    <ele>619.46</ele>
   </trkpt>
   <trkpt lat="49.440580000000004" lon="20.09871">
    <ele>618.83</ele>
   </trkpt>
   <trkpt lat="49.440490000000004" lon="20.0991">
    <ele>617.8800000000001</ele>
   </trkpt>
   <trkpt lat="49.440310000000004" lon="20.099600000000002">
    <ele>617.3000000000001</ele>
   </trkpt>
   <trkpt lat="49.44015" lon="20.100270000000002">
    <ele>617.2</ele>
   </trkpt>
   <trkpt lat="49.43988" lon="20.101210000000002">
    <ele>617.11</ele>
   </trkpt>
   <trkpt lat="49.4397" lon="20.101740000000003">
    <ele>617.75</ele>
   </trkpt>
   <trkpt lat="49.43967000000001" lon="20.10179">
    <ele>617.78</ele>
   </trkpt>
   <trkpt lat="49.439620000000005" lon="20.1018">
    <ele>617.78</ele>
   </trkpt>
   <trkpt lat="49.439060000000005" lon="20.10131">
    <ele>618.73</ele>
   </trkpt>
   <trkpt lat="49.438500000000005" lon="20.10096">
    <ele>622.0100000000001</ele>
   </trkpt>
   <trkpt lat="49.43807" lon="20.10065">
    <ele>623.71</ele>
   </trkpt>
   <trkpt lat="49.4378" lon="20.100520000000003">
    <ele>624.69</ele>
   </trkpt>
   <trkpt lat="49.437720000000006" lon="20.10056">
    <ele>624.77</ele>
   </trkpt>
   <trkpt lat="49.43770000000001" lon="20.100720000000003">
    <ele>624.77</ele>
   </trkpt>
   <trkpt lat="49.43777000000001" lon="20.101300000000002">
    <ele>625.2700000000001</ele>
   </trkpt>
   <trkpt lat="49.43788000000001" lon="20.10201">
    <ele>625.9100000000001</ele>
   </trkpt>
   <trkpt lat="49.437920000000005" lon="20.10244">
    <ele>626.1000000000001</ele>
   </trkpt>
   <trkpt lat="49.43804" lon="20.103160000000003">
    <ele>625.6700000000001</ele>
   </trkpt>
   <trkpt lat="49.438120000000005" lon="20.103900000000003">
    <ele>625.0300000000001</ele>
   </trkpt>
   <trkpt lat="49.438120000000005" lon="20.104110000000002">
    <ele>624.8800000000001</ele>
   </trkpt>
   <trkpt lat="49.43806500427191" lon="20.105105001046258">
    <ele>624.48</ele>
   </trkpt>
   <trkpt lat="49.438010000000006" lon="20.1061">
    <ele>624.14</ele>
   </trkpt>
   <trkpt lat="49.43801000333849" lon="20.10697999999421">
    <ele>623.38</ele>
   </trkpt>
   <trkpt lat="49.438010000000006" lon="20.107860000000002">
    <ele>622.6</ele>
   </trkpt>
   <trkpt lat="49.438050000000004" lon="20.108040000000003">
    <ele>622.1800000000001</ele>
   </trkpt>
   <trkpt lat="49.43838" lon="20.10865">
    <ele>620.92</ele>
   </trkpt>
   <trkpt lat="49.43856" lon="20.109060000000003">
    <ele>619.97</ele>
   </trkpt>
   <trkpt lat="49.43892" lon="20.109730000000003">
    <ele>618.97</ele>
   </trkpt>
   <trkpt lat="49.43952" lon="20.11034">
    <ele>617.6700000000001</ele>
   </trkpt>
   <trkpt lat="49.439620000000005" lon="20.110470000000003">
    <ele>617.5400000000001</ele>
   </trkpt>
   <trkpt lat="49.4397" lon="20.11089">
    <ele>617.46</ele>
   </trkpt>
   <trkpt lat="49.43967000000001" lon="20.111150000000002">
    <ele>617.5</ele>
   </trkpt>
   <trkpt lat="49.43958000000001" lon="20.111410000000003">
    <ele>617.71</ele>
   </trkpt>
   <trkpt lat="49.439530000000005" lon="20.11173">
    <ele>618.5400000000001</ele>
   </trkpt>
   <trkpt lat="49.43956000000001" lon="20.112080000000002">
    <ele>618.83</ele>
   </trkpt>
   <trkpt lat="49.439730000000004" lon="20.11299">
    <ele>619.48</ele>
   </trkpt>
   <trkpt lat="49.439820000000005" lon="20.113930000000003">
    <ele>619.6</ele>
   </trkpt>
   <trkpt lat="49.4401" lon="20.1152">
    <ele>618.7600000000001</ele>
   </trkpt>
   <trkpt lat="49.440270000000005" lon="20.116100000000003">
    <ele>617.72</ele>
   </trkpt>
   <trkpt lat="49.440580000000004" lon="20.117230000000003">
    <ele>616.41</ele>
   </trkpt>
   <trkpt lat="49.440780000000004" lon="20.11815">
    <ele>613.94</ele>
   </trkpt>
   <trkpt lat="49.44108000000001" lon="20.11934">
    <ele>611.1500000000001</ele>
   </trkpt>
   <trkpt lat="49.44116" lon="20.11982">
    <ele>611.1500000000001</ele>
   </trkpt>
   <trkpt lat="49.441190000000006" lon="20.12039">
    <ele>610.41</ele>
   </trkpt>
   <trkpt lat="49.441230000000004" lon="20.120600000000003">
    <ele>610.14</ele>
   </trkpt>
   <trkpt lat="49.441340000000004" lon="20.12075">
    <ele>609.85</ele>
   </trkpt>
   <trkpt lat="49.441700000000004" lon="20.121090000000002">
    <ele>608.8800000000001</ele>
   </trkpt>
   <trkpt lat="49.442105001092834" lon="20.121579996022835">
    <ele>606.72</ele>
   </trkpt>
   <trkpt lat="49.442510000000006" lon="20.12207">
    <ele>605.5100000000001</ele>
   </trkpt>
   <trkpt lat="49.44258000000001" lon="20.12233">
    <ele>605.5100000000001</ele>
   </trkpt>
   <trkpt lat="49.442600000000006" lon="20.122970000000002">
    <ele>605.29</ele>
   </trkpt>
   <trkpt lat="49.44268" lon="20.123450000000002">
    <ele>605.16</ele>
   </trkpt>
   <trkpt lat="49.44277" lon="20.12375">
    <ele>604.85</ele>
   </trkpt>
   <trkpt lat="49.442840000000004" lon="20.124180000000003">
    <ele>604.69</ele>
   </trkpt>
   <trkpt lat="49.443000000000005" lon="20.12451">
    <ele>604.7</ele>
   </trkpt>
   <trkpt lat="49.44317" lon="20.124950000000002">
    <ele>604.62</ele>
   </trkpt>
   <trkpt lat="49.44324" lon="20.12535">
    <ele>604.3900000000001</ele>
   </trkpt>
   <trkpt lat="49.44324" lon="20.12536">
    <ele>604.3900000000001</ele>
   </trkpt>
   <trkpt lat="49.44326" lon="20.12583">
    <ele>604.3900000000001</ele>
   </trkpt>
   <trkpt lat="49.443160000000006" lon="20.126520000000003">
    <ele>604.2</ele>
   </trkpt>
   <trkpt lat="49.4431" lon="20.12705">
    <ele>604.34</ele>
   </trkpt>
   <trkpt lat="49.44314000000001" lon="20.127570000000002">
    <ele>605.0500000000001</ele>
   </trkpt>
   <trkpt lat="49.443070000000006" lon="20.128110000000003">
    <ele>605.0500000000001</ele>
   </trkpt>
   <trkpt lat="49.44303000000001" lon="20.12928">
    <ele>606.11</ele>
   </trkpt>
   <trkpt lat="49.44292" lon="20.129790000000003">
    <ele>606.1500000000001</ele>
   </trkpt>
   <trkpt lat="49.44288" lon="20.13041">
    <ele>606.25</ele>
   </trkpt>
   <trkpt lat="49.442780000000006" lon="20.13109">
    <ele>606.2</ele>
   </trkpt>
   <trkpt lat="49.44281" lon="20.13165">
    <ele>606.08</ele>
   </trkpt>
   <trkpt lat="49.44279" lon="20.13232">
    <ele>606.0000000000001</ele>
   </trkpt>
   <trkpt lat="49.442660000000004" lon="20.13322">
    <ele>606.59</ele>
   </trkpt>
   <trkpt lat="49.4425" lon="20.13406">
    <ele>606.58</ele>
   </trkpt>
   <trkpt lat="49.442350000000005" lon="20.135360000000002">
    <ele>606.24</ele>
   </trkpt>
   <trkpt lat="49.44223" lon="20.13598">
    <ele>606.26</ele>
   </trkpt>
   <trkpt lat="49.44216" lon="20.136490000000002">
    <ele>606.4000000000001</ele>
   </trkpt>
   <trkpt lat="49.44212" lon="20.13781">
    <ele>606.0699999999999</ele>
   </trkpt>
   <trkpt lat="49.441990000000004" lon="20.13897">
    <ele>605.82</ele>
   </trkpt>
   <trkpt lat="49.44198" lon="20.139750000000003">
    <ele>605.1800000000001</ele>
   </trkpt>
   <trkpt lat="49.441805007907824" lon="20.14110500489178">
    <ele>604.5100000000001</ele>
   </trkpt>
   <trkpt lat="49.44163" lon="20.142460000000003">
    <ele>604.83</ele>
   </trkpt>
   <trkpt lat="49.4416" lon="20.14261">
    <ele>604.83</ele>
   </trkpt>
   <trkpt lat="49.44164000000001" lon="20.142670000000003">
    <ele>604.83</ele>
   </trkpt>
   <trkpt lat="49.441790000000005" lon="20.142480000000003">
    <ele>604.77</ele>
   </trkpt>
   <trkpt lat="49.44198" lon="20.142300000000002">
    <ele>604.77</ele>
   </trkpt>
   <trkpt lat="49.4421" lon="20.14223">
    <ele>604.4900000000001</ele>
   </trkpt>
   <trkpt lat="49.442906667742484" lon="20.141873345077823">
    <ele>603.97</ele>
   </trkpt>
   <trkpt lat="49.443713334388185" lon="20.141516678420672">
    <ele>602.87</ele>
   </trkpt>
   <trkpt lat="49.444520000000004" lon="20.141160000000003">
    <ele>602.1899999999999</ele>
   </trkpt>
   <trkpt lat="49.445286667375875" lon="20.140870009075343">
    <ele>601.3000000000001</ele>
   </trkpt>
   <trkpt lat="49.44605333402666" lon="20.14058000908153">
    <ele>600.2900000000001</ele>
   </trkpt>
   <trkpt lat="49.44682" lon="20.14029">
    <ele>598.83</ele>
   </trkpt>
   <trkpt lat="49.44758333449568" lon="20.139926677969385">
    <ele>598.3900000000001</ele>
   </trkpt>
   <trkpt lat="49.44834666785325" lon="20.13956334462474">
    <ele>597.72</ele>
   </trkpt>
   <trkpt lat="49.449110000000005" lon="20.139200000000002">
    <ele>596.58</ele>
   </trkpt>
   <trkpt lat="49.44943000000001" lon="20.139100000000003">
    <ele>596.21</ele>
   </trkpt>
   <trkpt lat="49.44995000015514" lon="20.138970001358413">
    <ele>595.3000000000001</ele>
   </trkpt>
   <trkpt lat="49.45047" lon="20.138840000000002">
    <ele>594.49</ele>
   </trkpt>
   <trkpt lat="49.450950000121885" lon="20.138670001665577">
    <ele>593.97</ele>
   </trkpt>
   <trkpt lat="49.45143" lon="20.1385">
    <ele>593.26</ele>
   </trkpt>
   <trkpt lat="49.452270000564546" lon="20.138145006074502">
    <ele>591.7900000000001</ele>
   </trkpt>
   <trkpt lat="49.45311" lon="20.137790000000003">
    <ele>590.0500000000001</ele>
   </trkpt>
   <trkpt lat="49.45355000000001" lon="20.13748">
    <ele>589.72</ele>
   </trkpt>
   <trkpt lat="49.45414" lon="20.137020000000003">
    <ele>589.14</ele>
   </trkpt>
   <trkpt lat="49.454645000439974" lon="20.136740002828347">
    <ele>588.87</ele>
   </trkpt>
   <trkpt lat="49.45515" lon="20.136460000000003">
    <ele>588.13</ele>
   </trkpt>
   <trkpt lat="49.45555" lon="20.13616">
    <ele>588.0000000000001</ele>
   </trkpt>
   <trkpt lat="49.45618666794177" lon="20.13578000985461">
    <ele>587.48</ele>
   </trkpt>
   <trkpt lat="49.45682333463868" lon="20.135400009836733">
    <ele>586.22</ele>
   </trkpt>
   <trkpt lat="49.457460000000005" lon="20.13502">
    <ele>585.3900000000001</ele>
   </trkpt>
   <trkpt lat="49.458155001583386" lon="20.13441000866876">
    <ele>584.84</ele>
   </trkpt>
   <trkpt lat="49.458850000000005" lon="20.1338">
    <ele>584.13</ele>
   </trkpt>
   <trkpt lat="49.45935" lon="20.13363">
    <ele>582.85</ele>
   </trkpt>
   <trkpt lat="49.460170000000005" lon="20.133290000000002">
    <ele>582.22</ele>
   </trkpt>
   <trkpt lat="49.460750000000004" lon="20.133170000000003">
    <ele>581.83</ele>
   </trkpt>
   <trkpt lat="49.46076" lon="20.133270000000003">
    <ele>581.9100000000001</ele>
   </trkpt>
   <trkpt lat="49.460800000000006" lon="20.13335">
    <ele>581.9100000000001</ele>
   </trkpt>
   <trkpt lat="49.460890000000006" lon="20.1334">
    <ele>581.98</ele>
   </trkpt>
   <trkpt lat="49.460950000000004" lon="20.133390000000002">
    <ele>581.98</ele>
   </trkpt>
   <trkpt lat="49.46103" lon="20.133290000000002">
    <ele>581.71</ele>
   </trkpt>
   <trkpt lat="49.46105000000001" lon="20.13315">
    <ele>581.71</ele>
   </trkpt>
   <trkpt lat="49.4613" lon="20.133090000000003">
    <ele>580.61</ele>
   </trkpt>
   <trkpt lat="49.46177" lon="20.13303">
    <ele>579.95</ele>
   </trkpt>
   <trkpt lat="49.46226" lon="20.13284">
    <ele>579.55</ele>
   </trkpt>
   <trkpt lat="49.46271" lon="20.13259">
    <ele>579.1</ele>
   </trkpt>
   <trkpt lat="49.463" lon="20.132520000000003">
    <ele>578.43</ele>
   </trkpt>
   <trkpt lat="49.46363999992313" lon="20.13248000052771">
    <ele>577.52</ele>
   </trkpt>
   <trkpt lat="49.46428" lon="20.132440000000003">
    <ele>577.16</ele>
   </trkpt>
   <trkpt lat="49.46498000007119" lon="20.13236000343021">
    <ele>576.61</ele>
   </trkpt>
   <trkpt lat="49.465680000087204" lon="20.13228000457458">
    <ele>575.4200000000001</ele>
   </trkpt>
   <trkpt lat="49.46638000004804" lon="20.13220000343298">
    <ele>573.8199999999999</ele>
   </trkpt>
   <trkpt lat="49.46708" lon="20.13212">
    <ele>572.65</ele>
   </trkpt>
   <trkpt lat="49.46791" lon="20.1321">
    <ele>571.77</ele>
   </trkpt>
   <trkpt lat="49.46858999999238" lon="20.13206500145867">
    <ele>570.96</ele>
   </trkpt>
   <trkpt lat="49.46926999997421" lon="20.132030001945733">
    <ele>570.2600000000001</ele>
   </trkpt>
   <trkpt lat="49.46994999994548" lon="20.131995001461135">
    <ele>569.37</ele>
   </trkpt>
   <trkpt lat="49.47063000000001" lon="20.131960000000003">
    <ele>568.1700000000001</ele>
   </trkpt>
   <trkpt lat="49.47066" lon="20.13174">
    <ele>567.8199999999999</ele>
   </trkpt>
   <trkpt lat="49.47081000000001" lon="20.131770000000003">
    <ele>567.37</ele>
   </trkpt>
   <trkpt lat="49.47093" lon="20.131770000000003">
    <ele>567.11</ele>
   </trkpt>
   <trkpt lat="49.47101000000001" lon="20.13173">
    <ele>567.06</ele>
   </trkpt>
   <trkpt lat="49.471090000000004" lon="20.13165">
    <ele>567.03</ele>
   </trkpt>
   <trkpt lat="49.47139000000001" lon="20.13115">
    <ele>566.7</ele>
   </trkpt>
   <trkpt lat="49.47162" lon="20.1309">
    <ele>566.7</ele>
   </trkpt>
   <trkpt lat="49.472030000000004" lon="20.13033">
    <ele>565.72</ele>
   </trkpt>
   <trkpt lat="49.472730000000006" lon="20.12956">
    <ele>564.5100000000001</ele>
   </trkpt>
   <trkpt lat="49.47280000000001" lon="20.129530000000003">
    <ele>564.5100000000001</ele>
   </trkpt>
   <trkpt lat="49.47323" lon="20.12948">
    <ele>563.6600000000001</ele>
   </trkpt>
   <trkpt lat="49.473560000000006" lon="20.12958">
    <ele>563.5100000000001</ele>
   </trkpt>
   <trkpt lat="49.473760000000006" lon="20.13016">
    <ele>564.34</ele>
   </trkpt>
   <trkpt lat="49.473910000000004" lon="20.13044">
    <ele>564.5300000000001</ele>
   </trkpt>
   <trkpt lat="49.47397" lon="20.13051">
    <ele>564.5300000000001</ele>
   </trkpt>
   <trkpt lat="49.474680000000006" lon="20.131240000000002">
    <ele>565.06</ele>
   </trkpt>
   <trkpt lat="49.47491" lon="20.13143">
    <ele>564.8000000000001</ele>
   </trkpt>
   <trkpt lat="49.47542000000001" lon="20.13173">
    <ele>564.15</ele>
   </trkpt>
   <trkpt lat="49.475860000000004" lon="20.132070000000002">
    <ele>565.1</ele>
   </trkpt>
   <trkpt lat="49.47628" lon="20.132420000000003">
    <ele>566.6300000000001</ele>
   </trkpt>
   <trkpt lat="49.47637" lon="20.13204">
    <ele>566.13</ele>
   </trkpt>
   <trkpt lat="49.47636000000001" lon="20.131950000000003">
    <ele>566.13</ele>
   </trkpt>
   <trkpt lat="49.476060000000004" lon="20.131510000000002">
    <ele>564.22</ele>
   </trkpt>
   <trkpt lat="49.475840000000005" lon="20.131130000000002">
    <ele>563.86</ele>
   </trkpt>
   <trkpt lat="49.475840000000005" lon="20.13109">
    <ele>563.86</ele>
   </trkpt>
   <trkpt lat="49.47592" lon="20.13013">
    <ele>562.59</ele>
   </trkpt>
   <trkpt lat="49.475970000000004" lon="20.12993">
    <ele>562.34</ele>
   </trkpt>
   <trkpt lat="49.47598000000001" lon="20.129550000000002">
    <ele>562.1</ele>
   </trkpt>
   <trkpt lat="49.476000000000006" lon="20.12946">
    <ele>561.7800000000001</ele>
   </trkpt>
   <trkpt lat="49.476110000000006" lon="20.12929">
    <ele>561.73</ele>
   </trkpt>
   <trkpt lat="49.47645000000001" lon="20.128980000000002">
    <ele>562.71</ele>
   </trkpt>
   <trkpt lat="49.476910000000004" lon="20.128510000000002">
    <ele>563.09</ele>
   </trkpt>
   <trkpt lat="49.47701000000001" lon="20.12836">
    <ele>562.71</ele>
   </trkpt>
   <trkpt lat="49.47710000000001" lon="20.128290000000003">
    <ele>562.5400000000001</ele>
   </trkpt>
   <trkpt lat="49.477180000000004" lon="20.12819">
    <ele>562.5400000000001</ele>
   </trkpt>
   <trkpt lat="49.477360000000004" lon="20.12789">
    <ele>563.2600000000001</ele>
   </trkpt>
   <trkpt lat="49.47768000000001" lon="20.1275">
    <ele>563.06</ele>
   </trkpt>
   <trkpt lat="49.47778" lon="20.127350000000003">
    <ele>562.86</ele>
   </trkpt>
   <trkpt lat="49.47808500130992" lon="20.12680000341435">
    <ele>561.79</ele>
   </trkpt>
   <trkpt lat="49.478390000000005" lon="20.126250000000002">
    <ele>562.06</ele>
   </trkpt>
   <trkpt lat="49.478730000000006" lon="20.125380000000003">
    <ele>562.62</ele>
   </trkpt>
   <trkpt lat="49.47899" lon="20.12478">
    <ele>564.37</ele>
   </trkpt>
   <trkpt lat="49.479150000000004" lon="20.12451">
    <ele>566.1</ele>
   </trkpt>
   <trkpt lat="49.479290000000006" lon="20.124100000000002">
    <ele>565.99</ele>
   </trkpt>
   <trkpt lat="49.479470000000006" lon="20.1232">
    <ele>566.06</ele>
   </trkpt>
   <trkpt lat="49.47948" lon="20.122410000000002">
    <ele>564.4</ele>
   </trkpt>
   <trkpt lat="49.47948" lon="20.122400000000003">
    <ele>564.3600000000001</ele>
   </trkpt>
   <trkpt lat="49.47946" lon="20.12186">
    <ele>562.9200000000001</ele>
   </trkpt>
   <trkpt lat="49.47941" lon="20.1216">
    <ele>562.83</ele>
   </trkpt>
   <trkpt lat="49.47934" lon="20.121370000000002">
    <ele>562.6800000000001</ele>
   </trkpt>
   <trkpt lat="49.479240000000004" lon="20.121190000000002">
    <ele>562.5100000000001</ele>
   </trkpt>
   <trkpt lat="49.478950000000005" lon="20.12075">
    <ele>562.59</ele>
   </trkpt>
   <trkpt lat="49.478840000000005" lon="20.120220000000003">
    <ele>563.06</ele>
   </trkpt>
   <trkpt lat="49.478640000000006" lon="20.120130000000003">
    <ele>562.83</ele>
   </trkpt>
   <trkpt lat="49.478460000000005" lon="20.11999">
    <ele>562.76</ele>
   </trkpt>
   <trkpt lat="49.47829" lon="20.119600000000002">
    <ele>562.77</ele>
   </trkpt>
   <trkpt lat="49.47807" lon="20.119380000000003">
    <ele>562.88</ele>
   </trkpt>
   <trkpt lat="49.478" lon="20.11927">
    <ele>562.9399999999999</ele>
   </trkpt>
   <trkpt lat="49.47782" lon="20.1188">
    <ele>562.95</ele>
   </trkpt>
   <trkpt lat="49.47768000000001" lon="20.11839">
    <ele>563.18</ele>
   </trkpt>
   <trkpt lat="49.477590000000006" lon="20.11795">
    <ele>563.5100000000001</ele>
   </trkpt>
   <trkpt lat="49.47755" lon="20.11728">
    <ele>563.6800000000001</ele>
   </trkpt>
   <trkpt lat="49.47748000000001" lon="20.11699">
    <ele>563.73</ele>
   </trkpt>
   <trkpt lat="49.477340000000005" lon="20.116600000000002">
    <ele>563.69</ele>
   </trkpt>
   <trkpt lat="49.47726" lon="20.116310000000002">
    <ele>563.69</ele>
   </trkpt>
   <trkpt lat="49.47708" lon="20.1152">
    <ele>563.77</ele>
   </trkpt>
   <trkpt lat="49.477020002093475" lon="20.11449999892674">
    <ele>563.9000000000001</ele>
   </trkpt>
   <trkpt lat="49.476960000000005" lon="20.1138">
    <ele>563.85</ele>
   </trkpt>
   <trkpt lat="49.476960000000005" lon="20.11334">
    <ele>563.96</ele>
   </trkpt>
   <trkpt lat="49.47706" lon="20.11239">
    <ele>565.0200000000001</ele>
   </trkpt>
   <trkpt lat="49.47708" lon="20.111810000000002">
    <ele>565.1700000000001</ele>
   </trkpt>
   <trkpt lat="49.477180000000004" lon="20.110950000000003">
    <ele>565.58</ele>
   </trkpt>
   <trkpt lat="49.47728000000001" lon="20.11033">
    <ele>565.79</ele>
   </trkpt>
   <trkpt lat="49.477430000000005" lon="20.109820000000003">
    <ele>566.06</ele>
   </trkpt>
   <trkpt lat="49.477690005363606" lon="20.108705005897537">
    <ele>564.97</ele>
   </trkpt>
   <trkpt lat="49.47795000000001" lon="20.107590000000002">
    <ele>565.32</ele>
   </trkpt>
   <trkpt lat="49.478080000000006" lon="20.107180000000003">
    <ele>565.71</ele>
   </trkpt>
   <trkpt lat="49.47816" lon="20.10715">
    <ele>565.84</ele>
   </trkpt>
   <trkpt lat="49.478170000000006" lon="20.107020000000002">
    <ele>565.7</ele>
   </trkpt>
   <trkpt lat="49.47838500219058" lon="20.106330002584688">
    <ele>565.9300000000001</ele>
   </trkpt>
   <trkpt lat="49.47860000000001" lon="20.10564">
    <ele>566.2600000000001</ele>
   </trkpt>
   <trkpt lat="49.47907667684124" lon="20.10455335449795">
    <ele>566.5600000000001</ele>
   </trkpt>
   <trkpt lat="49.47955334350356" lon="20.103466687841586">
    <ele>566.6300000000001</ele>
   </trkpt>
   <trkpt lat="49.480030000000006" lon="20.10238">
    <ele>566.97</ele>
   </trkpt>
   <trkpt lat="49.48035" lon="20.10153">
    <ele>567.96</ele>
   </trkpt>
   <trkpt lat="49.48055" lon="20.10125">
    <ele>569.52</ele>
   </trkpt>
   <trkpt lat="49.480560000000004" lon="20.100990000000003">
    <ele>569.7</ele>
   </trkpt>
   <trkpt lat="49.47992000000001" lon="20.10028">
    <ele>568.89</ele>
   </trkpt>
   <trkpt lat="49.48001000000001" lon="20.100140000000003">
    <ele>567.7800000000001</ele>
   </trkpt>
   <trkpt lat="49.48006" lon="20.10001">
    <ele>567.4200000000001</ele>
   </trkpt>
   <trkpt lat="49.48012000000001" lon="20.09974">
    <ele>567.13</ele>
   </trkpt>
   <trkpt lat="49.48019500222734" lon="20.099020001169997">
    <ele>567.23</ele>
   </trkpt>
   <trkpt lat="49.480270000000004" lon="20.098300000000002">
    <ele>567.6600000000001</ele>
   </trkpt>
   <trkpt lat="49.48035000362983" lon="20.097380001712548">
    <ele>567.67</ele>
   </trkpt>
   <trkpt lat="49.480430000000005" lon="20.09646">
    <ele>567.83</ele>
   </trkpt>
   <trkpt lat="49.480660009818436" lon="20.095393343303876">
    <ele>568.49</ele>
   </trkpt>
   <trkpt lat="49.480890009829196" lon="20.094326676587574">
    <ele>568.6800000000001</ele>
   </trkpt>
   <trkpt lat="49.481120000000004" lon="20.09326">
    <ele>568.5600000000001</ele>
   </trkpt>
   <trkpt lat="49.48131" lon="20.092660000000002">
    <ele>568.69</ele>
   </trkpt>
   <trkpt lat="49.48134" lon="20.092180000000003">
    <ele>568.64</ele>
   </trkpt>
   <trkpt lat="49.48131" lon="20.090880000000002">
    <ele>568.9300000000001</ele>
   </trkpt>
   <trkpt lat="49.48125" lon="20.09033">
    <ele>569.0500000000001</ele>
   </trkpt>
   <trkpt lat="49.48116" lon="20.09005">
    <ele>569.1400000000001</ele>
   </trkpt>
   <trkpt lat="49.480860001090775" lon="20.08950999639288">
    <ele>569.6</ele>
   </trkpt>
   <trkpt lat="49.480560000000004" lon="20.088970000000003">
    <ele>570.37</ele>
   </trkpt>
   <trkpt lat="49.48048000000001" lon="20.08893">
    <ele>570.37</ele>
   </trkpt>
   <trkpt lat="49.480430000000005" lon="20.088610000000003">
    <ele>570.4100000000001</ele>
   </trkpt>
   <trkpt lat="49.48015" lon="20.08783">
    <ele>570.5</ele>
   </trkpt>
   <trkpt lat="49.47992000000001" lon="20.08697">
    <ele>570.32</ele>
   </trkpt>
   <trkpt lat="49.479760000000006" lon="20.0863">
    <ele>570.72</ele>
   </trkpt>
   <trkpt lat="49.479780000000005" lon="20.08518">
    <ele>570.6300000000001</ele>
   </trkpt>
   <trkpt lat="49.47981" lon="20.08474">
    <ele>570.69</ele>
   </trkpt>
   <trkpt lat="49.47995" lon="20.08408">
    <ele>570.88</ele>
   </trkpt>
   <trkpt lat="49.480070000000005" lon="20.083810000000003">
    <ele>570.76</ele>
   </trkpt>
   <trkpt lat="49.480450000000005" lon="20.083270000000002">
    <ele>570.84</ele>
   </trkpt>
   <trkpt lat="49.480720000000005" lon="20.08284">
    <ele>571.3100000000001</ele>
   </trkpt>
   <trkpt lat="49.480900000000005" lon="20.082510000000003">
    <ele>571.72</ele>
   </trkpt>
   <trkpt lat="49.481410000000004" lon="20.08189">
    <ele>571.5600000000001</ele>
   </trkpt>
   <trkpt lat="49.48194" lon="20.08116">
    <ele>571.01</ele>
   </trkpt>
   <trkpt lat="49.482380000000006" lon="20.0805">
    <ele>571.2600000000001</ele>
   </trkpt>
   <trkpt lat="49.48295" lon="20.07955">
    <ele>574.49</ele>
   </trkpt>
   <trkpt lat="49.483320001240294" lon="20.078995004324828">
    <ele>572.61</ele>
   </trkpt>
   <trkpt lat="49.48369" lon="20.07844">
    <ele>572.5600000000001</ele>
   </trkpt>
   <trkpt lat="49.48395000000001" lon="20.07787">
    <ele>573.19</ele>
   </trkpt>
   <trkpt lat="49.48424000000001" lon="20.07719">
    <ele>574.21</ele>
   </trkpt>
   <trkpt lat="49.48452" lon="20.076310000000003">
    <ele>574.32</ele>
   </trkpt>
   <trkpt lat="49.484725002132286" lon="20.07561500273887">
    <ele>574.3100000000001</ele>
   </trkpt>
   <trkpt lat="49.484930000000006" lon="20.074920000000002">
    <ele>574.43</ele>
   </trkpt>
   <trkpt lat="49.485130000000005" lon="20.0741">
    <ele>574.43</ele>
   </trkpt>
   <trkpt lat="49.48519" lon="20.07375">
    <ele>574.44</ele>
   </trkpt>
   <trkpt lat="49.48528" lon="20.07344">
    <ele>574.26</ele>
   </trkpt>
   <trkpt lat="49.485490000000006" lon="20.072940000000003">
    <ele>573.99</ele>
   </trkpt>
   <trkpt lat="49.48561" lon="20.072390000000002">
    <ele>573.99</ele>
   </trkpt>
   <trkpt lat="49.485760000000006" lon="20.07204">
    <ele>574.1500000000001</ele>
   </trkpt>
   <trkpt lat="49.485850000000006" lon="20.071640000000002">
    <ele>574.3000000000001</ele>
   </trkpt>
   <trkpt lat="49.48601000000001" lon="20.0711">
    <ele>574.34</ele>
   </trkpt>
   <trkpt lat="49.48612000000001" lon="20.07075">
    <ele>574.43</ele>
   </trkpt>
   <trkpt lat="49.486340000000006" lon="20.070200000000003">
    <ele>574.4800000000001</ele>
   </trkpt>
   <trkpt lat="49.48664" lon="20.06935">
    <ele>574.5600000000001</ele>
   </trkpt>
   <trkpt lat="49.48698" lon="20.068170000000002">
    <ele>574.85</ele>
   </trkpt>
   <trkpt lat="49.48722" lon="20.067410000000002">
    <ele>575.04</ele>
   </trkpt>
   <trkpt lat="49.487370000000006" lon="20.06682">
    <ele>575.5100000000001</ele>
   </trkpt>
   <trkpt lat="49.487550000000006" lon="20.065820000000002">
    <ele>575.55</ele>
   </trkpt>
   <trkpt lat="49.487700000000004" lon="20.064580000000003">
    <ele>575.34</ele>
   </trkpt>
   <trkpt lat="49.487460000000006" lon="20.06399">
    <ele>576.38</ele>
   </trkpt>
   <trkpt lat="49.48727" lon="20.06344">
    <ele>576.98</ele>
   </trkpt>
   <trkpt lat="49.48702" lon="20.062920000000002">
    <ele>577.77</ele>
   </trkpt>
   <trkpt lat="49.487030000000004" lon="20.062630000000002">
    <ele>578.4</ele>
   </trkpt>
   <trkpt lat="49.48707" lon="20.06255">
    <ele>578.4</ele>
   </trkpt>
   <trkpt lat="49.487190000000005" lon="20.06246">
    <ele>578.4</ele>
   </trkpt>
   <trkpt lat="49.48742000000001" lon="20.062060000000002">
    <ele>578.6</ele>
   </trkpt>
   <trkpt lat="49.487590000000004" lon="20.06156">
    <ele>579.0200000000001</ele>
   </trkpt>
   <trkpt lat="49.48762000000001" lon="20.06124">
    <ele>579.0200000000001</ele>
   </trkpt>
   <trkpt lat="49.487550000000006" lon="20.060760000000002">
    <ele>579.11</ele>
   </trkpt>
   <trkpt lat="49.487350000000006" lon="20.06004">
    <ele>579.1200000000001</ele>
   </trkpt>
   <trkpt lat="49.487025004049684" lon="20.059069993544263">
    <ele>579.33</ele>
   </trkpt>
   <trkpt lat="49.486700000000006" lon="20.058100000000003">
    <ele>579.38</ele>
   </trkpt>
   <trkpt lat="49.4866" lon="20.057750000000002">
    <ele>579.57</ele>
   </trkpt>
   <trkpt lat="49.48657000000001" lon="20.057350000000003">
    <ele>579.6999999999999</ele>
   </trkpt>
   <trkpt lat="49.4865533453368" lon="20.056169999281586">
    <ele>579.85</ele>
   </trkpt>
   <trkpt lat="49.486536678671335" lon="20.05498999936629">
    <ele>580.22</ele>
   </trkpt>
   <trkpt lat="49.486520000000006" lon="20.053810000000002">
    <ele>580.52</ele>
   </trkpt>
   <trkpt lat="49.486520004440194" lon="20.05279500026781">
    <ele>580.7800000000001</ele>
   </trkpt>
   <trkpt lat="49.486520000000006" lon="20.05178">
    <ele>581.26</ele>
   </trkpt>
   <trkpt lat="49.48655500288418" lon="20.05096000091004">
    <ele>581.44</ele>
   </trkpt>
   <trkpt lat="49.48659000000001" lon="20.050140000000003">
    <ele>582.09</ele>
   </trkpt>
   <trkpt lat="49.48669" lon="20.04878">
    <ele>582.2700000000001</ele>
   </trkpt>
   <trkpt lat="49.48668000000001" lon="20.04812">
    <ele>582.4</ele>
   </trkpt>
   <trkpt lat="49.486630000000005" lon="20.047800000000002">
    <ele>582.4</ele>
   </trkpt>
   <trkpt lat="49.486470000000004" lon="20.047430000000002">
    <ele>582.6300000000001</ele>
   </trkpt>
   <trkpt lat="49.486270000000005" lon="20.047040000000003">
    <ele>582.7800000000001</ele>
   </trkpt>
   <trkpt lat="49.48583667107877" lon="20.046326654082197">
    <ele>583.09</ele>
   </trkpt>
   <trkpt lat="49.485403337771295" lon="20.045613320791603">
    <ele>582.98</ele>
   </trkpt>
   <trkpt lat="49.484970000000004" lon="20.044900000000002">
    <ele>582.65</ele>
   </trkpt>
   <trkpt lat="49.48462000000001" lon="20.04444">
    <ele>582.96</ele>
   </trkpt>
   <trkpt lat="49.484370000000006" lon="20.044210000000003">
    <ele>583.1</ele>
   </trkpt>
   <trkpt lat="49.48373" lon="20.043760000000002">
    <ele>583.31</ele>
   </trkpt>
   <trkpt lat="49.48299" lon="20.043290000000002">
    <ele>583.3900000000001</ele>
   </trkpt>
   <trkpt lat="49.48221" lon="20.042740000000002">
    <ele>584.01</ele>
   </trkpt>
   <trkpt lat="49.48181" lon="20.04239">
    <ele>584.38</ele>
   </trkpt>
   <trkpt lat="49.481480000000005" lon="20.042060000000003">
    <ele>584.8100000000001</ele>
   </trkpt>
   <trkpt lat="49.48125" lon="20.04174">
    <ele>585.84</ele>
   </trkpt>
   <trkpt lat="49.48107" lon="20.041600000000003">
    <ele>587.0500000000001</ele>
   </trkpt>
   <trkpt lat="49.48130500402005" lon="20.040635004604752">
    <ele>587.3900000000001</ele>
   </trkpt>
   <trkpt lat="49.48154" lon="20.03967">
    <ele>586.45</ele>
   </trkpt>
   <trkpt lat="49.48165" lon="20.03937">
    <ele>586.1200000000001</ele>
   </trkpt>
   <trkpt lat="49.481700000000004" lon="20.039340000000003">
    <ele>585.86</ele>
   </trkpt>
   <trkpt lat="49.48205" lon="20.03956">
    <ele>584.71</ele>
   </trkpt>
   <trkpt lat="49.48221" lon="20.0396">
    <ele>584.71</ele>
   </trkpt>
   <trkpt lat="49.482380000000006" lon="20.039610000000003">
    <ele>584.71</ele>
   </trkpt>
   <trkpt lat="49.48255" lon="20.0396">
    <ele>584.09</ele>
   </trkpt>
   <trkpt lat="49.4829" lon="20.039450000000002">
    <ele>583.77</ele>
   </trkpt>
   <trkpt lat="49.48337500034603" lon="20.039155002879838">
    <ele>583.7800000000001</ele>
   </trkpt>
   <trkpt lat="49.483850000000004" lon="20.038860000000003">
    <ele>584.46</ele>
   </trkpt>
   <trkpt lat="49.484140000000004" lon="20.03872">
    <ele>585.52</ele>
   </trkpt>
   <trkpt lat="49.48433000000001" lon="20.03865">
    <ele>585.9100000000001</ele>
   </trkpt>
   <trkpt lat="49.485000000056225" lon="20.038545001435487">
    <ele>588.22</ele>
   </trkpt>
   <trkpt lat="49.485670000000006" lon="20.03844">
    <ele>587.6300000000001</ele>
   </trkpt>
   <trkpt lat="49.48608" lon="20.038330000000002">
    <ele>586.6</ele>
   </trkpt>
   <trkpt lat="49.486110000000004" lon="20.038320000000002">
    <ele>586.52</ele>
   </trkpt>
   <trkpt lat="49.486110000000004" lon="20.03826">
    <ele>586.48</ele>
   </trkpt>
   <trkpt lat="49.48622" lon="20.03825">
    <ele>586.71</ele>
   </trkpt>
   <trkpt lat="49.486250000000005" lon="20.03829">
    <ele>586.73</ele>
   </trkpt>
   <trkpt lat="49.48630000000001" lon="20.038300000000003">
    <ele>586.73</ele>
   </trkpt>
   <trkpt lat="49.48633" lon="20.03828">
    <ele>586.73</ele>
   </trkpt>
   <trkpt lat="49.48637" lon="20.038220000000003">
    <ele>586.7800000000001</ele>
   </trkpt>
   <trkpt lat="49.486610000000006" lon="20.03818">
    <ele>587.07</ele>
   </trkpt>
   <trkpt lat="49.486760000000004" lon="20.03825">
    <ele>587.1</ele>
   </trkpt>
   <trkpt lat="49.48702" lon="20.03829">
    <ele>587.35</ele>
   </trkpt>
   <trkpt lat="49.48776" lon="20.03846">
    <ele>588.53</ele>
   </trkpt>
   <trkpt lat="49.48807000000001" lon="20.03847">
    <ele>589.2900000000001</ele>
   </trkpt>
   <trkpt lat="49.48869500003478" lon="20.03844500031789">
    <ele>590.35</ele>
   </trkpt>
   <trkpt lat="49.489320000000006" lon="20.038420000000002">
    <ele>591.83</ele>
   </trkpt>
   <trkpt lat="49.489560000000004" lon="20.038390000000003">
    <ele>592.87</ele>
   </trkpt>
   <trkpt lat="49.48989" lon="20.03828">
    <ele>594.3000000000001</ele>
   </trkpt>
   <trkpt lat="49.49015000000001" lon="20.038210000000003">
    <ele>594.3000000000001</ele>
   </trkpt>
   <trkpt lat="49.49062999960835" lon="20.038190000212506">
    <ele>595.32</ele>
   </trkpt>
   <trkpt lat="49.491110000000006" lon="20.03817">
    <ele>596.47</ele>
   </trkpt>
   <trkpt lat="49.49171000004681" lon="20.03808000110139">
    <ele>598.02</ele>
   </trkpt>
   <trkpt lat="49.49231" lon="20.03799">
    <ele>600.59</ele>
   </trkpt>
   <trkpt lat="49.49271" lon="20.03796">
    <ele>601.71</ele>
   </trkpt>
   <trkpt lat="49.49344000000001" lon="20.038030000000003">
    <ele>603.5200000000001</ele>
   </trkpt>
   <trkpt lat="49.49372" lon="20.0381">
    <ele>605.1899999999999</ele>
   </trkpt>
   <trkpt lat="49.4941649999358" lon="20.038294998127164">
    <ele>605.94</ele>
   </trkpt>
   <trkpt lat="49.49461" lon="20.038490000000003">
    <ele>607.5400000000001</ele>
   </trkpt>
   <trkpt lat="49.49474000000001" lon="20.03853">
    <ele>608.92</ele>
   </trkpt>
   <trkpt lat="49.495110000000004" lon="20.03853">
    <ele>609.32</ele>
   </trkpt>
   <trkpt lat="49.495645000121904" lon="20.038470000643937">
    <ele>610.97</ele>
   </trkpt>
   <trkpt lat="49.49618" lon="20.038410000000002">
    <ele>612.73</ele>
   </trkpt>
   <trkpt lat="49.496340000000004" lon="20.038420000000002">
    <ele>613.5600000000001</ele>
   </trkpt>
   <trkpt lat="49.49647" lon="20.03846">
    <ele>613.5600000000001</ele>
   </trkpt>
   <trkpt lat="49.49667" lon="20.03855">
    <ele>614.33</ele>
   </trkpt>
   <trkpt lat="49.49683" lon="20.038680000000003">
    <ele>615.14</ele>
   </trkpt>
   <trkpt lat="49.49742667058481" lon="20.039353316926565">
    <ele>617.34</ele>
   </trkpt>
   <trkpt lat="49.4980233372619" lon="20.04002665027138">
    <ele>617.3000000000001</ele>
   </trkpt>
   <trkpt lat="49.49862" lon="20.0407">
    <ele>617.5200000000001</ele>
   </trkpt>
   <trkpt lat="49.49895" lon="20.041140000000002">
    <ele>617.83</ele>
   </trkpt>
   <trkpt lat="49.499100000000006" lon="20.041500000000003">
    <ele>618.8100000000001</ele>
   </trkpt>
   <trkpt lat="49.499230000000004" lon="20.042140000000003">
    <ele>621.6400000000001</ele>
   </trkpt>
   <trkpt lat="49.49931" lon="20.042370000000002">
    <ele>621.6400000000001</ele>
   </trkpt>
   <trkpt lat="49.49945" lon="20.042610000000003">
    <ele>623.17</ele>
   </trkpt>
   <trkpt lat="49.49998" lon="20.04316">
    <ele>626.3700000000001</ele>
   </trkpt>
   <trkpt lat="49.50018000000001" lon="20.04344">
    <ele>626.6700000000001</ele>
   </trkpt>
   <trkpt lat="49.500535001923744" lon="20.04411999493465">
    <ele>629.78</ele>
   </trkpt>
   <trkpt lat="49.500890000000005" lon="20.044800000000002">
    <ele>632.19</ele>
   </trkpt>
   <trkpt lat="49.501480004180465" lon="20.045779988252796">
    <ele>635.09</ele>
   </trkpt>
   <trkpt lat="49.50207" lon="20.046760000000003">
    <ele>637.0600000000001</ele>
   </trkpt>
   <trkpt lat="49.502430000000004" lon="20.04776">
    <ele>638.0</ele>
   </trkpt>
   <trkpt lat="49.502950000000006" lon="20.04869">
    <ele>639.58</ele>
   </trkpt>
   <trkpt lat="49.503370000000004" lon="20.049390000000002">
    <ele>641.82</ele>
   </trkpt>
   <trkpt lat="49.503510000000006" lon="20.049570000000003">
    <ele>642.22</ele>
   </trkpt>
   <trkpt lat="49.503840000000004" lon="20.04991">
    <ele>643.36</ele>
   </trkpt>
   <trkpt lat="49.504020000000004" lon="20.05018">
    <ele>644.0600000000001</ele>
   </trkpt>
   <trkpt lat="49.50445500540281" lon="20.05129499020254">
    <ele>645.5300000000001</ele>
   </trkpt>
   <trkpt lat="49.50489" lon="20.052410000000002">
    <ele>649.21</ele>
   </trkpt>
   <trkpt lat="49.50506000000001" lon="20.052690000000002">
    <ele>651.02</ele>
   </trkpt>
   <trkpt lat="49.50564000000001" lon="20.053520000000002">
    <ele>653.2500000000001</ele>
   </trkpt>
  </trkseg>
 </trk>
</gpx>
